[{"OBJECT_NAME":"CUTE-1.7+APD II (CO-65)","OBJECT_ID":"2008-021C","EPOCH":"2026-03-04T03:23:00.043872","MEAN_MOTION":15.08277099,"ECCENTRICITY":0.0010258,"INCLINATION":97.82,"RA_OF_ASC_NODE":42.5131,"ARG_OF_PERICENTER":36.1381,"MEAN_ANOMALY":324.0538,"EPHEMERIS_TYPE":0,"CLASSIFICATION_TYPE":"U","NORAD_CAT_ID":32785,"ELEMENT_SET_NO":999,"REV_AT_EPOCH":96935,"BSTAR":0.00067316,"MEAN_MOTION_DOT":0.00010389,"MEAN_MOTION_DDOT":0},{"OBJECT_NAME":"SEEDS II (CO-66)","OBJECT_ID":"2008-021J","EPOCH":"2026-03-03T12:10:28.642944","MEAN_MOTION":15.28751446,"ECCENTRICITY":0.00025637,"INCLINATION":97.7506,"RA_OF_ASC_NODE":55.6816,"ARG_OF_PERICENTER":18.3674,"MEAN_ANOMALY":341.7657,"EPHEMERIS_TYPE":0,"CLASSIFICATION_TYPE":"U","NORAD_CAT_ID":32791,"ELEMENT_SET_NO":999,"REV_AT_EPOCH":97112,"BSTAR":0.00086000582,"MEAN_MOTION_DOT":0.0002401,"MEAN_MOTION_DDOT":0},{"OBJECT_NAME":"YUBILEINY (RS30)","OBJECT_ID":"2008-025A","EPOCH":"2026-03-04T03:42:57.797568","MEAN_MOTION":12.43175748,"ECCENTRICITY":0.0019326,"INCLINATION":82.4984,"RA_OF_ASC_NODE":60.7671,"ARG_OF_PERICENTER":177.3409,"MEAN_ANOMALY":182.7776,"EPHEMERIS_TYPE":0,"CLASSIFICATION_TYPE":"U","NORAD_CAT_ID":32953,"ELEMENT_SET_NO":999,"REV_AT_EPOCH":80664,"BSTAR":-0.0001462,"MEAN_MOTION_DOT":-1.0e-7,"MEAN_MOTION_DDOT":0},{"OBJECT_NAME":"KKS-1 (KISEKI)","OBJECT_ID":"2009-002H","EPOCH":"2026-03-04T01:35:41.088192","MEAN_MOTION":14.82803766,"ECCENTRICITY":0.0006457,"INCLINATION":98.119,"RA_OF_ASC_NODE":343.8765,"ARG_OF_PERICENTER":273.0267,"MEAN_ANOMALY":87.0207,"EPHEMERIS_TYPE":0,"CLASSIFICATION_TYPE":"U","NORAD_CAT_ID":33499,"ELEMENT_SET_NO":999,"REV_AT_EPOCH":92061,"BSTAR":0.00034588,"MEAN_MOTION_DOT":2.743e-5,"MEAN_MOTION_DDOT":0},{"OBJECT_NAME":"SWISSCUBE","OBJECT_ID":"2009-051B","EPOCH":"2026-03-04T03:21:45.165312","MEAN_MOTION":14.62241691,"ECCENTRICITY":0.0006697,"INCLINATION":98.4105,"RA_OF_ASC_NODE":329.1845,"ARG_OF_PERICENTER":169.2734,"MEAN_ANOMALY":190.8611,"EPHEMERIS_TYPE":0,"CLASSIFICATION_TYPE":"U","NORAD_CAT_ID":35932,"ELEMENT_SET_NO":999,"REV_AT_EPOCH":87380,"BSTAR":0.00035991,"MEAN_MOTION_DOT":1.765e-5,"MEAN_MOTION_DDOT":0},{"OBJECT_NAME":"BEESAT-1","OBJECT_ID":"2009-051C","EPOCH":"2026-03-04T03:56:57.608160","MEAN_MOTION":14.61518154,"ECCENTRICITY":0.0004926,"INCLINATION":98.4035,"RA_OF_ASC_NODE":329.0606,"ARG_OF_PERICENTER":180.2881,"MEAN_ANOMALY":179.8317,"EPHEMERIS_TYPE":0,"CLASSIFICATION_TYPE":"U","NORAD_CAT_ID":35933,"ELEMENT_SET_NO":999,"REV_AT_EPOCH":87384,"BSTAR":0.00030888,"MEAN_MOTION_DOT":1.483e-5,"MEAN_MOTION_DDOT":0},{"OBJECT_NAME":"ITUPSAT1","OBJECT_ID":"2009-051E","EPOCH":"2026-03-03T17:18:48.685248","MEAN_MOTION":14.60252771,"ECCENTRICITY":0.00068732,"INCLINATION":98.4123,"RA_OF_ASC_NODE":327.9111,"ARG_OF_PERICENTER":197.5625,"MEAN_ANOMALY":162.5338,"EPHEMERIS_TYPE":0,"CLASSIFICATION_TYPE":"U","NORAD_CAT_ID":35935,"ELEMENT_SET_NO":999,"REV_AT_EPOCH":87334,"BSTAR":0.00027433628,"MEAN_MOTION_DOT":1.275e-5,"MEAN_MOTION_DDOT":0},{"OBJECT_NAME":"XIWANG-1 (HOPE-1)","OBJECT_ID":"2009-072B","EPOCH":"2026-03-04T03:17:20.001120","MEAN_MOTION":13.16437294,"ECCENTRICITY":0.0008045,"INCLINATION":100.3905,"RA_OF_ASC_NODE":18.7054,"ARG_OF_PERICENTER":111.2998,"MEAN_ANOMALY":248.8974,"EPHEMERIS_TYPE":0,"CLASSIFICATION_TYPE":"U","NORAD_CAT_ID":36122,"ELEMENT_SET_NO":999,"REV_AT_EPOCH":77918,"BSTAR":0.00071995,"MEAN_MOTION_DOT":2.31e-6,"MEAN_MOTION_DDOT":0},{"OBJECT_NAME":"O/OREOS (USA 219)","OBJECT_ID":"2010-062C","EPOCH":"2026-03-04T02:30:22.736448","MEAN_MOTION":14.9324536,"ECCENTRICITY":0.001693,"INCLINATION":71.9724,"RA_OF_ASC_NODE":318.2844,"ARG_OF_PERICENTER":266.0807,"MEAN_ANOMALY":93.8428,"EPHEMERIS_TYPE":0,"CLASSIFICATION_TYPE":"U","NORAD_CAT_ID":37224,"ELEMENT_SET_NO":999,"REV_AT_EPOCH":10095,"BSTAR":0.00035546,"MEAN_MOTION_DOT":3.669e-5,"MEAN_MOTION_DDOT":0},{"OBJECT_NAME":"JUGNU","OBJECT_ID":"2011-058B","EPOCH":"2026-03-03T19:00:23.760288","MEAN_MOTION":14.13737704,"ECCENTRICITY":0.0018664,"INCLINATION":19.9596,"RA_OF_ASC_NODE":228.7283,"ARG_OF_PERICENTER":352.6019,"MEAN_ANOMALY":135.4486,"EPHEMERIS_TYPE":0,"CLASSIFICATION_TYPE":"U","NORAD_CAT_ID":37839,"ELEMENT_SET_NO":999,"REV_AT_EPOCH":74409,"BSTAR":0.00014085,"MEAN_MOTION_DOT":5.37e-6,"MEAN_MOTION_DDOT":0},{"OBJECT_NAME":"SRMSAT","OBJECT_ID":"2011-058D","EPOCH":"2026-03-04T02:51:36.631008","MEAN_MOTION":14.11545206,"ECCENTRICITY":0.0011882,"INCLINATION":19.9731,"RA_OF_ASC_NODE":335.4194,"ARG_OF_PERICENTER":128.0964,"MEAN_ANOMALY":11.1385,"EPHEMERIS_TYPE":0,"CLASSIFICATION_TYPE":"U","NORAD_CAT_ID":37841,"ELEMENT_SET_NO":999,"REV_AT_EPOCH":74295,"BSTAR":0.00012795,"MEAN_MOTION_DOT":5.01e-6,"MEAN_MOTION_DDOT":0},{"OBJECT_NAME":"STRAND-1","OBJECT_ID":"2013-009E","EPOCH":"2026-03-04T01:32:06.842112","MEAN_MOTION":14.37089198,"ECCENTRICITY":0.0008669,"INCLINATION":98.3881,"RA_OF_ASC_NODE":245.8956,"ARG_OF_PERICENTER":178.1921,"MEAN_ANOMALY":181.9299,"EPHEMERIS_TYPE":0,"CLASSIFICATION_TYPE":"U","NORAD_CAT_ID":39090,"ELEMENT_SET_NO":999,"REV_AT_EPOCH":68196,"BSTAR":0.00019483,"MEAN_MOTION_DOT":5.36e-6,"MEAN_MOTION_DDOT":0},{"OBJECT_NAME":"ZACUBE-1 (TSHEPISOSAT)","OBJECT_ID":"2013-066B","EPOCH":"2026-03-04T03:03:52.168032","MEAN_MOTION":15.00255417,"ECCENTRICITY":0.0041699,"INCLINATION":97.8183,"RA_OF_ASC_NODE":24.924,"ARG_OF_PERICENTER":238.7498,"MEAN_ANOMALY":120.9637,"EPHEMERIS_TYPE":0,"CLASSIFICATION_TYPE":"U","NORAD_CAT_ID":39417,"ELEMENT_SET_NO":999,"REV_AT_EPOCH":66497,"BSTAR":0.00059707,"MEAN_MOTION_DOT":7.552e-5,"MEAN_MOTION_DDOT":0},{"OBJECT_NAME":"GOMX-1","OBJECT_ID":"2013-066Q","EPOCH":"2026-03-04T02:29:09.477888","MEAN_MOTION":14.69071007,"ECCENTRICITY":0.01306,"INCLINATION":97.6569,"RA_OF_ASC_NODE":270.1571,"ARG_OF_PERICENTER":55.2913,"MEAN_ANOMALY":306.0515,"EPHEMERIS_TYPE":0,"CLASSIFICATION_TYPE":"U","NORAD_CAT_ID":39430,"ELEMENT_SET_NO":999,"REV_AT_EPOCH":65448,"BSTAR":0.00033884,"MEAN_MOTION_DOT":2.216e-5,"MEAN_MOTION_DDOT":0},{"OBJECT_NAME":"CUBEBUG-2 (LO-74)","OBJECT_ID":"2013-066AA","EPOCH":"2026-03-03T20:47:50.197344","MEAN_MOTION":14.92865511,"ECCENTRICITY":0.00593887,"INCLINATION":97.8812,"RA_OF_ASC_NODE":11.5305,"ARG_OF_PERICENTER":18.3107,"MEAN_ANOMALY":342.0232,"EPHEMERIS_TYPE":0,"CLASSIFICATION_TYPE":"U","NORAD_CAT_ID":39440,"ELEMENT_SET_NO":999,"REV_AT_EPOCH":66127,"BSTAR":0.00083131594,"MEAN_MOTION_DOT":8.858e-5,"MEAN_MOTION_DDOT":0},{"OBJECT_NAME":"FUNCUBE-1 (AO-73)","OBJECT_ID":"2013-066AE","EPOCH":"2026-03-03T08:04:48.099648","MEAN_MOTION":15.07759862,"ECCENTRICITY":0.00366102,"INCLINATION":97.8168,"RA_OF_ASC_NODE":31.7675,"ARG_OF_PERICENTER":201.255,"MEAN_ANOMALY":158.7158,"EPHEMERIS_TYPE":0,"CLASSIFICATION_TYPE":"U","NORAD_CAT_ID":39444,"ELEMENT_SET_NO":999,"REV_AT_EPOCH":66370,"BSTAR":0.00069419495,"MEAN_MOTION_DOT":0.00010715,"MEAN_MOTION_DDOT":0}]
